STARLINK-2022           
1 47643U 21012Z   23326.85733839  .00018125  00000+0  12319-2 0  9996
2 47643  53.0537 212.7963 0001760 108.3303 251.7878 15.06419704153982
